[
    {
        "Altitude(m)": 555226.4300755974,
        "Argument of Periapsis(deg)": 0.013245982221427002,
        "Eccentricity": 0.0,
        "Inclination(deg)": 53.0,
        "Latitude(deg)": 31.124430635027096,
        "Longitude(deg)": -4.671225288717085,
        "Mean Anomaly(deg)": 40.183185735155185,
        "RAAN(deg)": 69.98028673705603,
        "Satellite Name": "Starlink Shell 1 309",
        "Satellite Number": 309,
        "Semi-Major Axis(m)": 6931778.249405717,
        "Time(s)": 380
    },
    {
        "Altitude(m)": 555302.6103183317,
        "Argument of Periapsis(deg)": 0.013594560700938237,
        "Eccentricity": 0.0,
        "Inclination(deg)": 53.0,
        "Latitude(deg)": 31.571743957732064,
        "Longitude(deg)": -4.196914532961625,
        "Mean Anomaly(deg)": 40.81001693871189,
        "RAAN(deg)": 69.97976796697856,
        "Satellite Name": "Starlink Shell 1 309",
        "Satellite Number": 309,
        "Semi-Major Axis(m)": 6931778.249405717,
        "Time(s)": 390
    },
    {
        "Altitude(m)": 555379.6636244201,
        "Argument of Periapsis(deg)": 0.013943139180449475,
        "Eccentricity": 0.0,
        "Inclination(deg)": 53.0,
        "Latitude(deg)": 32.01692634352114,
        "Longitude(deg)": -3.7176737477163937,
        "Mean Anomaly(deg)": 41.4368481422686,
        "RAAN(deg)": 69.9792491969011,
        "Satellite Name": "Starlink Shell 1 309",
        "Satellite Number": 309,
        "Semi-Major Axis(m)": 6931778.249405717,
        "Time(s)": 400
    },
    {
        "Altitude(m)": 555457.5351544921,
        "Argument of Periapsis(deg)": 0.014291717659960712,
        "Eccentricity": 0.0,
        "Inclination(deg)": 53.0,
        "Latitude(deg)": 32.459920726011475,
        "Longitude(deg)": -3.2333923549310675,
        "Mean Anomaly(deg)": 42.06367934582532,
        "RAAN(deg)": 69.97873042682362,
        "Satellite Name": "Starlink Shell 1 309",
        "Satellite Number": 309,
        "Semi-Major Axis(m)": 6931778.249405717,
        "Time(s)": 410
    },
    {
        "Altitude(m)": 555536.1698569848,
        "Argument of Periapsis(deg)": 0.014640296139471948,
        "Eccentricity": 0.0,
        "Inclination(deg)": 53.0,
        "Latitude(deg)": 32.900668725130714,
        "Longitude(deg)": -2.7439591001823698,
        "Mean Anomaly(deg)": 42.69051054938203,
        "RAAN(deg)": 69.97821165674614,
        "Satellite Name": "Starlink Shell 1 309",
        "Satellite Number": 309,
        "Semi-Major Axis(m)": 6931778.249405717,
        "Time(s)": 420
    },
    {
        "Altitude(m)": 555615.5124968692,
        "Argument of Periapsis(deg)": 0.014988874618983185,
        "Eccentricity": 0.0,
        "Inclination(deg)": 53.0,
        "Latitude(deg)": 33.33911061421002,
        "Longitude(deg)": -2.249261588072835,
        "Mean Anomaly(deg)": 43.31734175293875,
        "RAAN(deg)": 69.97769288666868,
        "Satellite Name": "Starlink Shell 1 309",
        "Satellite Number": 309,
        "Semi-Major Axis(m)": 6931778.249405717,
        "Time(s)": 430
    },
    {
        "Altitude(m)": 555695.5076844731,
        "Argument of Periapsis(deg)": 0.015337453098494424,
        "Eccentricity": 0.0,
        "Inclination(deg)": 53.0,
        "Latitude(deg)": 33.77518528702056,
        "Longitude(deg)": -1.7491858237792097,
        "Mean Anomaly(deg)": 43.94417295649546,
        "RAAN(deg)": 69.9771741165912,
        "Satellite Name": "Starlink Shell 1 309",
        "Satellite Number": 309,
        "Semi-Major Axis(m)": 6931778.249405717,
        "Time(s)": 440
    },
    {
        "Altitude(m)": 555776.0999042989,
        "Argument of Periapsis(deg)": 0.01568603157800566,
        "Eccentricity": 0.0,
        "Inclination(deg)": 53.0,
        "Latitude(deg)": 34.20883022482634,
        "Longitude(deg)": -1.243617274058591,
        "Mean Anomaly(deg)": 44.57100416005218,
        "RAAN(deg)": 69.97665534651372,
        "Satellite Name": "Starlink Shell 1 309",
        "Satellite Number": 309,
        "Semi-Major Axis(m)": 6931778.249405717,
        "Time(s)": 450
    },
    {
        "Altitude(m)": 555857.2335438776,
        "Argument of Periapsis(deg)": 0.0160346100575169,
        "Eccentricity": 0.0,
        "Inclination(deg)": 53.0,
        "Latitude(deg)": 34.639981463541794,
        "Longitude(deg)": -0.7324404224233718,
        "Mean Anomaly(deg)": 45.19783536360889,
        "RAAN(deg)": 69.97613657643626,
        "Satellite Name": "Starlink Shell 1 309",
        "Satellite Number": 309,
        "Semi-Major Axis(m)": 6931778.249405717,
        "Time(s)": 460
    },
    {
        "Altitude(m)": 555938.8529226123,
        "Argument of Periapsis(deg)": 0.016383188537028134,
        "Eccentricity": 0.0,
        "Inclination(deg)": 53.0,
        "Latitude(deg)": 35.06857356108332,
        "Longitude(deg)": -0.21553833183401752,
        "Mean Anomaly(deg)": 45.82466656716563,
        "RAAN(deg)": 69.97561780635877,
        "Satellite Name": "Starlink Shell 1 309",
        "Satellite Number": 309,
        "Semi-Major Axis(m)": 6931778.249405717,
        "Time(s)": 470
    },
    {
        "Altitude(m)": 556020.902320604,
        "Argument of Periapsis(deg)": 0.01673176701653937,
        "Eccentricity": 0.0,
        "Inclination(deg)": 53.0,
        "Latitude(deg)": 35.49453956501253,
        "Longitude(deg)": 0.30720627172030235,
        "Mean Anomaly(deg)": 46.45149777072234,
        "RAAN(deg)": 69.9750990362813,
        "Satellite Name": "Starlink Shell 1 309",
        "Satellite Number": 309,
        "Semi-Major Axis(m)": 6931778.249405717,
        "Time(s)": 480
    },
    {
        "Altitude(m)": 556103.3260074825,
        "Argument of Periapsis(deg)": 0.017080345496050607,
        "Eccentricity": 0.0,
        "Inclination(deg)": 53.0,
        "Latitude(deg)": 35.917810980587724,
        "Longitude(deg)": 0.8359114199838383,
        "Mean Anomaly(deg)": 47.078328974279025,
        "RAAN(deg)": 69.97458026620383,
        "Satellite Name": "Starlink Shell 1 309",
        "Satellite Number": 309,
        "Semi-Major Axis(m)": 6931778.249405717,
        "Time(s)": 490
    },
    {
        "Altitude(m)": 556186.0682711542,
        "Argument of Periapsis(deg)": 0.017428923975561842,
        "Eccentricity": 0.0,
        "Inclination(deg)": 53.0,
        "Latitude(deg)": 36.33831773934157,
        "Longitude(deg)": 1.3706963141311501,
        "Mean Anomaly(deg)": 47.70516017783576,
        "RAAN(deg)": 69.97406149612635,
        "Satellite Name": "Starlink Shell 1 309",
        "Satellite Number": 309,
        "Semi-Major Axis(m)": 6931778.249405717,
        "Time(s)": 500
    },
    {
        "Altitude(m)": 556269.0734465083,
        "Argument of Periapsis(deg)": 0.01777750245507308,
        "Eccentricity": 0.0,
        "Inclination(deg)": 53.0,
        "Latitude(deg)": 36.7559881683139,
        "Longitude(deg)": 1.9116802139736098,
        "Mean Anomaly(deg)": 48.331991381392456,
        "RAAN(deg)": 69.97354272604889,
        "Satellite Name": "Starlink Shell 1 309",
        "Satellite Number": 309,
        "Semi-Major Axis(m)": 6931778.249405717,
        "Time(s)": 510
    },
    {
        "Altitude(m)": 556352.2859440862,
        "Argument of Periapsis(deg)": 0.018126080934584315,
        "Eccentricity": 0.0,
        "Inclination(deg)": 53.0,
        "Latitude(deg)": 37.170748960088865,
        "Longitude(deg)": 2.458982829853345,
        "Mean Anomaly(deg)": 48.95882258494919,
        "RAAN(deg)": 69.97302395597141,
        "Satellite Name": "Starlink Shell 1 309",
        "Satellite Number": 309,
        "Semi-Major Axis(m)": 6931778.249405717,
        "Time(s)": 520
    },
    {
        "Altitude(m)": 556435.6502786169,
        "Argument of Periapsis(deg)": 0.018474659414095554,
        "Eccentricity": 0.0,
        "Inclination(deg)": 53.0,
        "Latitude(deg)": 37.582525143788715,
        "Longitude(deg)": 3.012724703768239,
        "Mean Anomaly(deg)": 49.58565378850592,
        "RAAN(deg)": 69.97250518589394,
        "Satellite Name": "Starlink Shell 1 309",
        "Satellite Number": 309,
        "Semi-Major Axis(m)": 6931778.249405717,
        "Time(s)": 530
    },
    {
        "Altitude(m)": 556519.1110974791,
        "Argument of Periapsis(deg)": 0.018823237893606792,
        "Eccentricity": 0.0,
        "Inclination(deg)": 53.0,
        "Latitude(deg)": 37.99124005718984,
        "Longitude(deg)": 3.5730260662599256,
        "Mean Anomaly(deg)": 50.21248499206262,
        "RAAN(deg)": 69.97198641581647,
        "Satellite Name": "Starlink Shell 1 309",
        "Satellite Number": 309,
        "Semi-Major Axis(m)": 6931778.249405717,
        "Time(s)": 540
    },
    {
        "Altitude(m)": 556602.6132090666,
        "Argument of Periapsis(deg)": 0.019171816373118027,
        "Eccentricity": 0.0,
        "Inclination(deg)": 53.0,
        "Latitude(deg)": 38.396815320148185,
        "Longitude(deg)": 4.140007194205095,
        "Mean Anomaly(deg)": 50.83931619561933,
        "RAAN(deg)": 69.971467645739,
        "Satellite Name": "Starlink Shell 1 309",
        "Satellite Number": 309,
        "Semi-Major Axis(m)": 6931778.249405717,
        "Time(s)": 550
    },
    {
        "Altitude(m)": 556686.1016110094,
        "Argument of Periapsis(deg)": 0.019520394852629266,
        "Eccentricity": 0.0,
        "Inclination(deg)": 53.0,
        "Latitude(deg)": 38.7991708095261,
        "Longitude(deg)": 4.713788756025204,
        "Mean Anomaly(deg)": 51.46614739917604,
        "RAAN(deg)": 69.97094887566152,
        "Satellite Name": "Starlink Shell 1 309",
        "Satellite Number": 309,
        "Semi-Major Axis(m)": 6931778.249405717,
        "Time(s)": 560
    }
]